{
  "norad_id": 53624,
  "name": "STARLINK-4596",
  "history": [
    {
      "epoch": "2026-03-28T20:49:29.050176Z",
      "apogee_km": 540.6750310318939,
      "perigee_km": 538.8228362520213,
      "latitude_deg": -1.5328372593214074e-05,
      "longitude_deg": 9.131968764682378,
      "height_km": 540.5849422214296,
      "semi_major_axis_km": 6917.885933641957,
      "eccentricity": 0.00013387,
      "inclination_deg": 53.2166,
      "raan_deg": 147.785,
      "arg_perigee_deg": 86.3071,
      "mean_anomaly_deg": 273.8074,
      "mean_motion_rev_day": 15.08838186
    },
    {
      "epoch": "2026-03-29T07:57:11.402208Z",
      "apogee_km": 540.710836241069,
      "perigee_km": 538.8106280919983,
      "latitude_deg": -1.9105459661424576e-05,
      "longitude_deg": -160.33172915308947,
      "height_km": 540.7130281982255,
      "semi_major_axis_km": 6917.897732166533,
      "eccentricity": 0.00013734,
      "inclination_deg": 53.2169,
      "raan_deg": 145.7048,
      "arg_perigee_deg": 93.4188,
      "mean_anomaly_deg": 266.6961,
      "mean_motion_rev_day": 15.08834326
    }
  ]
}